BEIDOU-2 G5 (C05)       
1 38091U 12008A   26074.22188451  .00000058  00000+0  00000+0 0  9993
2 38091   3.3378  70.2407 0013652 257.4109 343.7829  1.00270166 51423
BEIDOU-2 M3 (C11)       
1 38250U 12018A   26073.14721841 -.00000025  00000+0  00000+0 0  9992
2 38250  55.8387 308.0798 0021028 279.8412  79.9804  1.86230226 94175
BEIDOU-2 M4 (C12)       
1 38251U 12018B   26072.00546832 -.00000031  00000+0  00000+0 0  9999
2 38251  55.7402 307.3399 0012191 287.4004  72.5220  1.86229915 94157
SES-5 (EGNOS/PRN 136)   
1 38652U 12036A   26074.28255144  .00000033  00000+0  00000+0 0  9990
2 38652   0.0644 306.6859 0001793  47.2719 285.6198  1.00271747 43518
BEIDOU-2 M6 (C14)       
1 38775U 12050B   26073.32648245  .00000019  00000+0  00000+0 0  9998
2 38775  56.4625  66.0292 0014164 342.6932  17.2813  1.86231068 91546
GSAT-10 (GAGAN/PRN 128) 
1 38779U 12051B   26074.15541090 -.00000166  00000+0  00000+0 0  9999
2 38779   0.0481 255.1358 0005105 185.3805 231.1995  1.00272292 49153
GPS BIIF-3  (PRN 24)    
1 38833U 12053A   26073.08978891 -.00000002  00000+0  00000+0 0  9995
2 38833  53.5669 147.4965 0177046  64.8456 297.0314  2.00565997 97538
GSAT0103 (GALILEO-FM3)  
1 38857U 12055A   26073.44869499  .00000040  00000+0  00000+0 0  9997
2 38857  55.7469 104.1441 0005619 286.5139  73.5020  1.70473501 83397
BEIDOU-2 G6 (C02)       
1 38953U 12059A   26074.08425727 -.00000174  00000+0  00000+0 0  9990
2 38953   4.1815  74.5255 0010567 306.7162 265.7371  1.00275751 48967
LUCH 5B (SDCM/PRN 125)  
1 38977U 12061A   26074.20706444 -.00000132  00000+0  00000+0 0  9995
2 38977  10.2806  50.7953 0003186 227.4035 312.8377  1.00271883 48668
COSMOS 2485 (747)       
1 39155U 13019A   26074.05822814  .00000061  00000+0  00000+0 0  9991
2 39155  65.3662  76.7624 0025489 237.2219 122.5718  2.13103306100274
GPS BIIF-4  (PRN 27)    
1 39166U 13023A   26072.95476941  .00000035  00000+0  00000+0 0  9992
2 39166  54.5793 272.8513 0141786  50.0653 311.2026  2.00564183 93976
IRNSS-1A                
1 39199U 13034A   26073.04747431  .00000095  00000+0  00000+0 0  9992
2 39199  35.5120  65.2274 0017342 190.9436 347.4797  1.00272937 46411
GPS BIIF-5  (PRN 30)    
1 39533U 14008A   26072.95373021 -.00000008  00000+0  00000+0 0  9990
2 39533  53.6383 153.2055 0082642 228.6391 130.6893  2.00553744 87776
ASTRA 5B (EGNOS/PRN 123)
1 39617U 14011B   26074.13447385  .00000136  00000+0  00000+0 0  9995
2 39617   0.0952 297.1875 0003788  38.2302 269.2327  1.00269723 43724
COSMOS 2492 (754)       
1 39620U 14012A   26074.01710874 -.00000018  00000+0  00000+0 0  9993
2 39620  65.3515 317.1388 0013014 327.6394  32.3455  2.13103548 93237
IRNSS-1B                
1 39635U 14017A   26074.03378257  .00000117  00000+0  00000+0 0  9990
2 39635  29.0919 242.0096 0021514 179.9447 177.7912  1.00274527 43846
