[{"OBJECT_NAME":"BEIDOU-2 G5 (C05)","OBJECT_ID":"2012-008A","EPOCH":"2026-03-15T05:19:30.821664","MEAN_MOTION":1.00270166,"ECCENTRICITY":0.0013652,"INCLINATION":3.3378,"RA_OF_ASC_NODE":70.2407,"ARG_OF_PERICENTER":257.4109,"MEAN_ANOMALY":343.7829,"EPHEMERIS_TYPE":0,"CLASSIFICATION_TYPE":"U","NORAD_CAT_ID":38091,"ELEMENT_SET_NO":999,"REV_AT_EPOCH":5142,"BSTAR":0,"MEAN_MOTION_DOT":5.8e-7,"MEAN_MOTION_DDOT":0},{"OBJECT_NAME":"BEIDOU-2 M3 (C11)","OBJECT_ID":"2012-018A","EPOCH":"2026-03-14T03:31:59.670624","MEAN_MOTION":1.86230226,"ECCENTRICITY":0.0021028,"INCLINATION":55.8387,"RA_OF_ASC_NODE":308.0798,"ARG_OF_PERICENTER":279.8412,"MEAN_ANOMALY":79.9804,"EPHEMERIS_TYPE":0,"CLASSIFICATION_TYPE":"U","NORAD_CAT_ID":38250,"ELEMENT_SET_NO":999,"REV_AT_EPOCH":9417,"BSTAR":0,"MEAN_MOTION_DOT":-2.5e-7,"MEAN_MOTION_DDOT":0},{"OBJECT_NAME":"BEIDOU-2 M4 (C12)","OBJECT_ID":"2012-018B","EPOCH":"2026-03-13T00:07:52.462848","MEAN_MOTION":1.86229915,"ECCENTRICITY":0.00121917,"INCLINATION":55.7402,"RA_OF_ASC_NODE":307.3399,"ARG_OF_PERICENTER":287.4004,"MEAN_ANOMALY":72.522,"EPHEMERIS_TYPE":0,"CLASSIFICATION_TYPE":"U","NORAD_CAT_ID":38251,"ELEMENT_SET_NO":999,"REV_AT_EPOCH":9415,"BSTAR":0,"MEAN_MOTION_DOT":-3.1e-7,"MEAN_MOTION_DDOT":0},{"OBJECT_NAME":"SES-5 (EGNOS/PRN 136)","OBJECT_ID":"2012-036A","EPOCH":"2026-03-15T06:46:52.444416","MEAN_MOTION":1.00271747,"ECCENTRICITY":0.00017933,"INCLINATION":0.0644,"RA_OF_ASC_NODE":306.6859,"ARG_OF_PERICENTER":47.2719,"MEAN_ANOMALY":285.6198,"EPHEMERIS_TYPE":0,"CLASSIFICATION_TYPE":"U","NORAD_CAT_ID":38652,"ELEMENT_SET_NO":999,"REV_AT_EPOCH":4351,"BSTAR":0,"MEAN_MOTION_DOT":3.3e-7,"MEAN_MOTION_DDOT":0},{"OBJECT_NAME":"BEIDOU-2 M6 (C14)","OBJECT_ID":"2012-050B","EPOCH":"2026-03-14T07:50:08.083680","MEAN_MOTION":1.86231068,"ECCENTRICITY":0.00141649,"INCLINATION":56.4625,"RA_OF_ASC_NODE":66.0292,"ARG_OF_PERICENTER":342.6932,"MEAN_ANOMALY":17.2813,"EPHEMERIS_TYPE":0,"CLASSIFICATION_TYPE":"U","NORAD_CAT_ID":38775,"ELEMENT_SET_NO":999,"REV_AT_EPOCH":9154,"BSTAR":0,"MEAN_MOTION_DOT":1.9e-7,"MEAN_MOTION_DDOT":0},{"OBJECT_NAME":"GSAT-10 (GAGAN/PRN 128)","OBJECT_ID":"2012-051B","EPOCH":"2026-03-15T03:43:47.501760","MEAN_MOTION":1.00272292,"ECCENTRICITY":0.00051058,"INCLINATION":0.0481,"RA_OF_ASC_NODE":255.1358,"ARG_OF_PERICENTER":185.3805,"MEAN_ANOMALY":231.1995,"EPHEMERIS_TYPE":0,"CLASSIFICATION_TYPE":"U","NORAD_CAT_ID":38779,"ELEMENT_SET_NO":999,"REV_AT_EPOCH":4915,"BSTAR":0,"MEAN_MOTION_DOT":-1.66e-6,"MEAN_MOTION_DDOT":0},{"OBJECT_NAME":"GPS BIIF-3  (PRN 24)","OBJECT_ID":"2012-053A","EPOCH":"2026-03-14T02:09:17.761824","MEAN_MOTION":2.00565997,"ECCENTRICITY":0.0177046,"INCLINATION":53.5669,"RA_OF_ASC_NODE":147.4965,"ARG_OF_PERICENTER":64.8456,"MEAN_ANOMALY":297.0314,"EPHEMERIS_TYPE":0,"CLASSIFICATION_TYPE":"U","NORAD_CAT_ID":38833,"ELEMENT_SET_NO":999,"REV_AT_EPOCH":9753,"BSTAR":0,"MEAN_MOTION_DOT":-2.0e-8,"MEAN_MOTION_DDOT":0},{"OBJECT_NAME":"GSAT0103 (GALILEO-FM3)","OBJECT_ID":"2012-055A","EPOCH":"2026-03-14T10:46:07.247136","MEAN_MOTION":1.70473501,"ECCENTRICITY":0.00056194,"INCLINATION":55.7469,"RA_OF_ASC_NODE":104.1441,"ARG_OF_PERICENTER":286.5139,"MEAN_ANOMALY":73.502,"EPHEMERIS_TYPE":0,"CLASSIFICATION_TYPE":"U","NORAD_CAT_ID":38857,"ELEMENT_SET_NO":999,"REV_AT_EPOCH":8339,"BSTAR":0,"MEAN_MOTION_DOT":4.0e-7,"MEAN_MOTION_DDOT":0},{"OBJECT_NAME":"BEIDOU-2 G6 (C02)","OBJECT_ID":"2012-059A","EPOCH":"2026-03-15T02:01:19.828128","MEAN_MOTION":1.00275751,"ECCENTRICITY":0.00105677,"INCLINATION":4.1815,"RA_OF_ASC_NODE":74.5255,"ARG_OF_PERICENTER":306.7162,"MEAN_ANOMALY":265.7371,"EPHEMERIS_TYPE":0,"CLASSIFICATION_TYPE":"U","NORAD_CAT_ID":38953,"ELEMENT_SET_NO":999,"REV_AT_EPOCH":4896,"BSTAR":0,"MEAN_MOTION_DOT":-1.74e-6,"MEAN_MOTION_DDOT":0},{"OBJECT_NAME":"LUCH 5B (SDCM/PRN 125)","OBJECT_ID":"2012-061A","EPOCH":"2026-03-15T04:58:10.367616","MEAN_MOTION":1.00271883,"ECCENTRICITY":0.00031861,"INCLINATION":10.2806,"RA_OF_ASC_NODE":50.7953,"ARG_OF_PERICENTER":227.4035,"MEAN_ANOMALY":312.8377,"EPHEMERIS_TYPE":0,"CLASSIFICATION_TYPE":"U","NORAD_CAT_ID":38977,"ELEMENT_SET_NO":999,"REV_AT_EPOCH":4866,"BSTAR":0,"MEAN_MOTION_DOT":-1.32e-6,"MEAN_MOTION_DDOT":0},{"OBJECT_NAME":"COSMOS 2485 (747)","OBJECT_ID":"2013-019A","EPOCH":"2026-03-15T01:23:50.911296","MEAN_MOTION":2.13103306,"ECCENTRICITY":0.00254892,"INCLINATION":65.3662,"RA_OF_ASC_NODE":76.7624,"ARG_OF_PERICENTER":237.2219,"MEAN_ANOMALY":122.5718,"EPHEMERIS_TYPE":0,"CLASSIFICATION_TYPE":"U","NORAD_CAT_ID":39155,"ELEMENT_SET_NO":999,"REV_AT_EPOCH":10027,"BSTAR":0,"MEAN_MOTION_DOT":6.1e-7,"MEAN_MOTION_DDOT":0},{"OBJECT_NAME":"GPS BIIF-4  (PRN 27)","OBJECT_ID":"2013-023A","EPOCH":"2026-03-13T22:54:52.077024","MEAN_MOTION":2.00564183,"ECCENTRICITY":0.01417868,"INCLINATION":54.5793,"RA_OF_ASC_NODE":272.8513,"ARG_OF_PERICENTER":50.0653,"MEAN_ANOMALY":311.2026,"EPHEMERIS_TYPE":0,"CLASSIFICATION_TYPE":"U","NORAD_CAT_ID":39166,"ELEMENT_SET_NO":999,"REV_AT_EPOCH":9397,"BSTAR":0,"MEAN_MOTION_DOT":3.5e-7,"MEAN_MOTION_DDOT":0},{"OBJECT_NAME":"IRNSS-1A","OBJECT_ID":"2013-034A","EPOCH":"2026-03-14T01:08:21.780384","MEAN_MOTION":1.00272937,"ECCENTRICITY":0.00173426,"INCLINATION":35.512,"RA_OF_ASC_NODE":65.2274,"ARG_OF_PERICENTER":190.9436,"MEAN_ANOMALY":347.4797,"EPHEMERIS_TYPE":0,"CLASSIFICATION_TYPE":"U","NORAD_CAT_ID":39199,"ELEMENT_SET_NO":999,"REV_AT_EPOCH":4641,"BSTAR":0,"MEAN_MOTION_DOT":9.5e-7,"MEAN_MOTION_DDOT":0},{"OBJECT_NAME":"GPS BIIF-5  (PRN 30)","OBJECT_ID":"2014-008A","EPOCH":"2026-03-13T22:53:22.290144","MEAN_MOTION":2.00553744,"ECCENTRICITY":0.00826427,"INCLINATION":53.6383,"RA_OF_ASC_NODE":153.2055,"ARG_OF_PERICENTER":228.6391,"MEAN_ANOMALY":130.6893,"EPHEMERIS_TYPE":0,"CLASSIFICATION_TYPE":"U","NORAD_CAT_ID":39533,"ELEMENT_SET_NO":999,"REV_AT_EPOCH":8777,"BSTAR":0,"MEAN_MOTION_DOT":-8.0e-8,"MEAN_MOTION_DDOT":0},{"OBJECT_NAME":"ASTRA 5B (EGNOS/PRN 123)","OBJECT_ID":"2014-011B","EPOCH":"2026-03-15T03:13:38.540640","MEAN_MOTION":1.00269723,"ECCENTRICITY":0.00037882,"INCLINATION":0.0952,"RA_OF_ASC_NODE":297.1875,"ARG_OF_PERICENTER":38.2302,"MEAN_ANOMALY":269.2327,"EPHEMERIS_TYPE":0,"CLASSIFICATION_TYPE":"U","NORAD_CAT_ID":39617,"ELEMENT_SET_NO":999,"REV_AT_EPOCH":4372,"BSTAR":0,"MEAN_MOTION_DOT":1.36e-6,"MEAN_MOTION_DDOT":0},{"OBJECT_NAME":"COSMOS 2492 (754)","OBJECT_ID":"2014-012A","EPOCH":"2026-03-15T00:24:38.195136","MEAN_MOTION":2.13103548,"ECCENTRICITY":0.00130143,"INCLINATION":65.3515,"RA_OF_ASC_NODE":317.1388,"ARG_OF_PERICENTER":327.6394,"MEAN_ANOMALY":32.3455,"EPHEMERIS_TYPE":0,"CLASSIFICATION_TYPE":"U","NORAD_CAT_ID":39620,"ELEMENT_SET_NO":999,"REV_AT_EPOCH":9323,"BSTAR":0,"MEAN_MOTION_DOT":-1.8e-7,"MEAN_MOTION_DDOT":0},{"OBJECT_NAME":"IRNSS-1B","OBJECT_ID":"2014-017A","EPOCH":"2026-03-15T00:48:38.814048","MEAN_MOTION":1.00274527,"ECCENTRICITY":0.00215145,"INCLINATION":29.0919,"RA_OF_ASC_NODE":242.0096,"ARG_OF_PERICENTER":179.9447,"MEAN_ANOMALY":177.7912,"EPHEMERIS_TYPE":0,"CLASSIFICATION_TYPE":"U","NORAD_CAT_ID":39635,"ELEMENT_SET_NO":999,"REV_AT_EPOCH":4384,"BSTAR":0,"MEAN_MOTION_DOT":1.17e-6,"MEAN_MOTION_DDOT":0}]
